E-ST@R-II               
1 41459U 16025D   22087.91346142  .00015909  00000+0  72032-3 0  9996
2 41459  98.1759 247.2608 0151943 182.3316 177.7270 15.11154197325321
AAUSAT 4                
1 41460U 16025E   22087.92044887  .00025276  00000+0  10454-2 0  9997
2 41460  98.1724 252.8008 0134899 161.1583 199.4714 15.15925341325722
BEESAT-4                
1 41619U 16040W   22087.40437501  .00015421  00000+0  55586-3 0  9999
2 41619  97.2283 140.2949 0010914  53.4312 306.7931 15.28572940308335
CANX-7                  
1 41788U 16059F   22087.87477328  .00343640  00000+0  14692-1 0  9996
2 41788  98.2182 212.5301 0018833 294.8054 180.3239 15.21130024296360
RAVAN                   
1 41849U 16067B   22087.88413202  .00003678  00000+0  30018-3 0  9991
2 41849  97.9913 222.6181 0013311 238.8050 121.1869 15.00024698293910
CELTEE 1                
1 41850U 16067C   22087.90359063  .00002979  00000+0  25739-3 0  9997
2 41850  97.9831 218.0070 0007331 236.8327 123.2192 14.98009057293692
OPTICUBE 04             
1 41851U 16067D   22087.91809500  .00001560  00000+0  13918-3 0  9996
2 41851  97.9833 217.1712 0007184 244.7276 115.3201 14.97487854293658
AEROCUBE 8D             
1 41852U 16067E   22087.88612862  .00002703  00000+0  23504-3 0  9998
2 41852  97.9798 217.0898 0008828 243.8923 116.1390 14.97840042293636
AEROCUBE 8C             
1 41853U 16067F   22087.86556084  .00002031  00000+0  17804-3 0  9990
2 41853  97.9804 216.9032 0008787 248.9045 111.1237 14.97814676293626
PROMETHEUS 2-1          
1 41854U 16067G   22087.88881801  .00004531  00000+0  38219-3 0  9991
2 41854  97.9798 217.8516 0009784 241.5287 118.4950 14.98650723293670
PROMETHEUS 2-3          
1 41855U 16067H   22087.88265963  .00004382  00000+0  36955-3 0  9996
2 41855  97.9800 217.9187 0010146 244.6636 115.3536 14.98674005293671
INS-1B                  
1 41954U 17008G   22087.42655679  .00013004  00000+0  46220-3 0  9996
2 41954  97.2683 149.0824 0009092 155.9915 204.1751 15.29091231284358
BGUSAT                  
1 41999U 17008BD  22087.15892706  .00031293  00000+0  90416-3 0  9995
2 41999  97.2900 158.1288 0007517 152.4054 207.7590 15.35565160284141
DIDO-2                  
1 42000U 17008BE  22087.87135729  .00007462  00000+0  28223-3 0  9991
2 42000  97.2675 149.2283 0008094 173.5368 186.5977 15.27210255283766
PEASSS                  
1 42015U 17008BV  22087.13697690  .00011821  00000+0  41559-3 0  9997
2 42015  97.2733 151.9257 0006122 169.9038 190.2327 15.29492951284333
AL-FARABI 1             
1 42016U 17008BW  22087.48564083  .00015527  00000+0  51094-3 0  9997
2 42016  97.2792 154.9010 0006082 164.8249 195.3176 15.31578918284645
NAYIF-1 (EO-88)         
1 42017U 17008BX  22087.44130506  .00017835  00000+0  58464-3 0  9995
2 42017  97.2782 154.8645 0006113 164.1829 195.9605 15.31671323284669
UCLSAT                  
1 42765U 17036A   22087.09140286  .00011567  00000+0  43159-3 0  9994
2 42765  97.2098 132.3787 0008422 247.9715 112.0630 15.27526250265420
LITUANICASAT-2          
1 42768U 17036D   22087.35403555  .00025357  00000+0  84248-3 0  9993
2 42768  97.2186 134.6654 0011016 230.3982 129.6288 15.31125437264827
AALTO-1                 
1 42775U 17036L   22087.85718246  .00007081  00000+0  29194-3 0  9995
2 42775  97.2093 128.6394 0011317 247.7608 112.2430 15.24310327264493
URSA MAIOR              
1 42776U 17036M   22087.86405672  .00007741  00000+0  31485-3 0  9992
2 42776  97.2107 129.3015 0011096 246.2708 113.7366 15.24737900264525
COMPASS 2               
1 42777U 17036N   22087.38321286  .00018381  00000+0  64652-3 0  9992
2 42777  97.2172 134.3713 0009386 232.6456 127.3930 15.29354741264742
DIAMOND RED             
1 42783U 17036U   22087.76862876  .00007940  00000+0  31234-3 0  9995
2 42783  97.2114 131.3826 0009366 252.4850 107.5365 15.25868134264635
PEGASUS                 
1 42784U 17036V   22087.36474962  .00011409  00000+0  43433-3 0  9996
2 42784  97.2110 131.9868 0009128 250.6017 109.4236 15.26856952264639
DIAMOND GREEN           
1 42785U 17036W   22087.37410600  .00009682  00000+0  38037-3 0  9991
2 42785  97.2120 131.0627 0009213 254.6584 105.3637 15.25853739264643
DIAMOND BLUE            
1 42786U 17036X   22087.37301728  .00007703  00000+0  30303-3 0  9992
2 42786  97.2117 131.0541 0009201 254.9446 105.0775 15.25876927264646
NUDTSAT                 
1 42787U 17036Y   22087.96077294  .00013658  00000+0  46860-3 0  9997
2 42787  97.2143 136.1342 0008158 236.1286 123.9182 15.30239669264772
SUCHAI                  
1 42788U 17036Z   22087.37694701  .00014320  00000+0  52326-3 0  9992
2 42788  97.2123 133.4361 0008674 244.4666 115.5678 15.28164001264792
SKCUBE                  
1 42789U 17036AA  22087.34015394  .00012995  00000+0  48256-3 0  9998
2 42789  97.2117 132.9466 0008605 245.9346 114.0994 15.27655388264686
VZLUSAT-1               
1 42790U 17036AB  22087.37447563  .00018821  00000+0  64577-3 0  9998
2 42790  97.2148 135.5444 0007918 236.1759 123.8729 15.30170724264834
ROBUSTA-1B              
1 42792U 17036AD  22087.38555392  .00014368  00000+0  52668-3 0  9991
2 42792  97.2115 133.4989 0008173 245.3689 114.6700 15.28062455264733
CICERO 6                
1 42793U 17036AE  22087.91835804  .00007719  00000+0  30353-3 0  9999
2 42793  97.2095 132.1032 0007803 250.9934 109.0460 15.25901763264787
CORVUS BC2              
1 42846U 17042X   22087.84442749  .00001200  00000+0  12151-3 0  9994
2 42846  97.4347 309.6731 0007934 266.8738  93.1575 14.92640112256252
CORVUS BC1              
1 42847U 17042Y   22087.86363449  .00000982  00000+0  10013-3 0  9997
2 42847  97.4350 309.9822 0007581 265.5194  94.5160 14.92739678256263
MIRATA                  
1 43015U 17073C   22087.47815134  .00008108  00000+0  59658-3 0  9995
2 43015  97.6835 345.8238 0244936  87.1187 275.8029 14.82623110235265
MAKERSAT 0              
1 43016U 17073D   22087.76397428  .00005031  00000+0  37741-3 0  9990
2 43016  97.6857 345.8405 0250562  89.8077 273.1844 14.81309074235248
AEROCUBE 7B (OCSD B)    
1 43042U 17071F   22087.90789244  .00067639  00000+0  76447-3 0  9992
2 43042  51.6332  94.3808 0002784  17.8028 342.3063 15.61822263243033
AEROCUBE 7C (OCSD C)    
1 43043U 17071G   22087.87121412  .00060376  00000+0  70423-3 0  9995
2 43043  51.6330  95.6056 0002918  12.0160 348.0902 15.61051703242985
ASGARDIA 1              
1 43049U 17071N   22087.90820168  .00054750  00000+0  67706-3 0  9998
2 43049  51.6337  96.0381 0003228  34.1199 326.0001 15.59561195242980
PROPCUBE 2 (FAUNA)      
1 43052U 17071R   22087.85367077  .00065581  00000+0  72041-3 0  9993
2 43052  51.6312  89.6264 0003582  43.2897 316.8378 15.62566112243055
CORVUS BC3              
1 43118U 18004H   22087.88239211  .00007397  00000+0  29045-3 0  9991
2 43118  97.3695 161.6820 0007972 289.5582  70.4795 15.25975381233923
MICROMAS-2A             
1 43131U 18004W   22087.47802433  .00025009  00000+0  81031-3 0  9996
2 43131  97.3809 166.7989 0006160 271.9335  88.1201 15.31979307234160
SPACEBEE-4              
1 43139U 18004AE  22087.50608497  .00037526  00000+0  10391-2 0  9999
2 43139  97.3901 170.8287 0005551 260.5430  99.5187 15.36871241234376
SPACEBEE-3              
1 43140U 18004AF  22087.50397517  .00052077  00000+0  12309-2 0  9998
2 43140  97.3945 173.6258 0005271 249.5536 110.5145 15.41649851234541
SPACEBEE-2              
1 43141U 18004AG  22087.20235269  .00072049  00000+0  15973-2 0  9992
2 43141  97.3966 174.4009 0005130 246.6245 113.4463 15.43480912234556
SPACEBEE-1              
1 43142U 18004AH  22087.54134893  .00071770  00000+0  14642-2 0  9993
2 43142  97.3983 175.8957 0005401 240.4902 119.5809 15.45936833234669
CICERO 7                
1 43143U 18004AJ  22087.48601365  .00015977  00000+0  53782-3 0  9996
2 43143  97.3788 166.6078 0004622 288.1854  71.8884 15.30849416234177
GOMX-4B                 
1 43196U 18015E   22087.91976425  .00004201  00000+0  16591-3 0  9991
2 43196  97.5193 226.6838 0017255 344.9256  15.1465 15.25954418230873
GOMX-4A                 
1 43197U 18015F   22087.92368850  .00005804  00000+0  21915-3 0  9996
2 43197  97.5181 227.2899 0016984 344.3471 138.8358 15.27279742230928
AEROCUBE 12A            
1 43556U 18046C   22087.65153371  .00018899  00000+0  54292-3 0  9991
2 43556  51.6365 216.7800 0006372 103.5926 256.5767 15.35835492206886
AEROCUBE 12B            
1 43557U 18046D   22087.83185104  .00017075  00000+0  51114-3 0  9996
2 43557  51.6383 219.4244 0006691 103.0046 257.1683 15.34611242206812
SURFSAT                 
1 43614U 18070B   22087.91970634  .00031942  00000+0  59378-3 0  9995
2 43614  93.0246  64.7261 0010408 355.3530   4.7631 15.48738311198579
CP7 (DAVE)              
1 43615U 18070C   22087.88113563  .00030560  00000+0  58108-3 0  9997
2 43615  93.0247  64.6091 0010758 355.4696   4.6463 15.48089552198548
ELFIN-B                 
1 43616U 18070D   22087.93413987  .00046762  00000+0  68744-3 0  9995
2 43616  93.0168  65.4083 0008651 353.2401   6.8744 15.55276682198793
ELFIN-A                 
1 43617U 18070E   22087.89241668  .00053615  00000+0  75696-3 0  9995
2 43617  93.0241  66.5745 0007402 349.8826  10.2287 15.56366095198822
CUBEBEL-1 (BSUSAT-1)    
1 43666U 18083E   22087.94977149  .00007461  00000+0  33388-3 0  9999
2 43666  97.4307 117.6052 0012066 253.0496 224.7447 15.21512585189231
CICERO 10               
1 43690U 18088A   22087.28372095  .00010894  00000+0  45616-3 0  9998
2 43690  85.0413  10.1524 0016733  87.0217 273.2940 15.23283214187377
IRVINE01                
1 43693U 18088D   22087.49506619  .00033501  00000+0  10786-2 0  9994
2 43693  85.0358   5.4830 0016930  59.3352 300.9561 15.31920409187804
PROXIMA I               
1 43694U 18088E   22087.52559821  .00010021  00000+0  39847-3 0  9994
2 43694  85.0350   6.8870 0020110  57.7876 302.5314 15.24948016187624
